{
  "norad_id": 63038,
  "name": "STARLINK-32812",
  "history": [
    {
      "epoch": "2026-03-28T11:45:25.614720Z",
      "apogee_km": 476.36335652080925,
      "perigee_km": 474.1547811036744,
      "latitude_deg": -1.1805931234765833e-05,
      "longitude_deg": 168.63947987353714,
      "height_km": 476.2841881658093,
      "semi_major_axis_km": 6853.3960688122415,
      "eccentricity": 0.00016113,
      "inclination_deg": 53.1595,
      "raan_deg": 170.9058,
      "arg_perigee_deg": 96.6335,
      "mean_anomaly_deg": 263.4849,
      "mean_motion_rev_day": 15.30185264
    }
  ]
}