{"fetched_at":"2026-03-29T02:12:04Z","count":15717,"tles":[{"name":"STARLINK-32812","line1":"1 63038U 25034K   26087.48987980  .00035872  00000+0  12180-2 0  9998","line2":"2 63038  53.1595 170.9058 0001611  96.6335 263.4849 15.30185264 61964","category":"Starlink"}]}